{
  "type": "FeatureCollection",
  "features": [
    {
      "type": "Feature",
      "properties": {
        "norad_id": 66909,
        "name": "SILVERSAT",
        "group": "stations",
        "lat": 51.11460546987927,
        "lon": -126.16374160484254,
        "alt_km": 406.2781888225236,
        "timestamp": "2025-12-14T14:39:28.155538+00:00",
        "meta_object_name": "SILVERSAT",
        "meta_object_id": "1998-067XV",
        "meta_epoch": "2025-12-13T19:41:48.869664",
        "meta_mean_motion": 15.51822369,
        "meta_eccentricity": 0.00043322,
        "meta_inclination": 51.6299,
        "meta_ra_of_asc_node": 137.0079,
        "meta_arg_of_pericenter": 234.1355,
        "meta_mean_anomaly": 125.9233,
        "meta_ephemeris_type": 0,
        "meta_classification_type": "U",
        "meta_norad_cat_id": 66909,
        "meta_element_set_no": 999,
        "meta_rev_at_epoch": 178,
        "meta_bstar": 0.0012407437,
        "meta_mean_motion_dot": 0.0007584,
        "meta_mean_motion_ddot": 0,
        "tle_line1": "1 66909U 98067XV  25347.82070451  .00075840  00000+0  12407-2 0  9997",
        "tle_line2": "2 66909  51.6299 137.0079 0004332 234.1355 125.9233 15.51822369  1789"
      },
      "geometry": {
        "type": "Point",
        "coordinates": [
          -126.16374160484254,
          51.11460546987927
        ]
      }
    },
    {
      "type": "Feature",
      "properties": {
        "norad_id": 66910,
        "name": "1998-067XW",
        "group": "stations",
        "lat": 48.95110007375174,
        "lon": -112.4270966851932,
        "alt_km": 405.29481522184415,
        "timestamp": "2025-12-14T14:39:28.155548+00:00",
        "meta_object_name": "1998-067XW",
        "meta_object_id": "1998-067XW",
        "meta_epoch": "2025-12-13T19:39:33.068736",
        "meta_mean_motion": 15.51931188,
        "meta_eccentricity": 0.00050672,
        "meta_inclination": 51.6298,
        "meta_ra_of_asc_node": 136.9978,
        "meta_arg_of_pericenter": 214.3383,
        "meta_mean_anomaly": 145.728,
        "meta_ephemeris_type": 0,
        "meta_classification_type": "U",
        "meta_norad_cat_id": 66910,
        "meta_element_set_no": 999,
        "meta_rev_at_epoch": 178,
        "meta_bstar": 0.0011247598,
        "meta_mean_motion_dot": 0.00068924,
        "meta_mean_motion_ddot": 0,
        "tle_line1": "1 66910U 98067XW  25347.81913274  .00068924  00000+0  11248-2 0  9994",
        "tle_line2": "2 66910  51.6298 136.9978 0005067 214.3383 145.7280 15.51931188  1785"
      },
      "geometry": {
        "type": "Point",
        "coordinates": [
          -112.4270966851932,
          48.95110007375174
        ]
      }
    },
    {
      "type": "Feature",
      "properties": {
        "norad_id": 66911,
        "name": "1998-067XX",
        "group": "stations",
        "lat": 46.75181594862244,
        "lon": -104.33463201706782,
        "alt_km": 404.4612693159943,
        "timestamp": "2025-12-14T14:39:28.155558+00:00",
        "meta_object_name": "1998-067XX",
        "meta_object_id": "1998-067XX",
        "meta_epoch": "2025-12-13T16:32:49.998912",
        "meta_mean_motion": 15.52189321,
        "meta_eccentricity": 0.00048024,
        "meta_inclination": 51.6299,
        "meta_ra_of_asc_node": 137.6321,
        "meta_arg_of_pericenter": 215.3057,
        "meta_mean_anomaly": 144.7616,
        "meta_ephemeris_type": 0,
        "meta_classification_type": "U",
        "meta_norad_cat_id": 66911,
        "meta_element_set_no": 999,
        "meta_rev_at_epoch": 175,
        "meta_bstar": 0.0012499181,
        "meta_mean_motion_dot": 0.00077443,
        "meta_mean_motion_ddot": 0,
        "tle_line1": "1 66911U 98067XX  25347.68946758  .00077443  00000+0  12499-2 0  9998",
        "tle_line2": "2 66911  51.6299 137.6321 0004802 215.3057 144.7616 15.52189321  1756"
      },
      "geometry": {
        "type": "Point",
        "coordinates": [
          -104.33463201706782,
          46.75181594862244
        ]
      }
    },
    {
      "type": "Feature",
      "properties": {
        "norad_id": 66912,
        "name": "1998-067XY",
        "group": "stations",
        "lat": 51.190787824956935,
        "lon": -146.7956220615669,
        "alt_km": 408.2935410412301,
        "timestamp": "2025-12-14T14:39:28.155568+00:00",
        "meta_object_name": "1998-067XY",
        "meta_object_id": "1998-067XY",
        "meta_epoch": "2025-12-13T19:44:43.483200",
        "meta_mean_motion": 15.51274122,
        "meta_eccentricity": 0.00044845,
        "meta_inclination": 51.6301,
        "meta_ra_of_asc_node": 137.0214,
        "meta_arg_of_pericenter": 229.4875,
        "meta_mean_anomaly": 130.5724,
        "meta_ephemeris_type": 0,
        "meta_classification_type": "U",
        "meta_norad_cat_id": 66912,
        "meta_element_set_no": 999,
        "meta_rev_at_epoch": 177,
        "meta_bstar": 0.00093164651,
        "meta_mean_motion_dot": 0.00055577,
        "meta_mean_motion_ddot": 0,
        "tle_line1": "1 66912U 98067XY  25347.82272550  .00055577  00000+0  93165-3 0  9991",
        "tle_line2": "2 66912  51.6301 137.0214 0004484 229.4875 130.5724 15.51274122  1774"
      },
      "geometry": {
        "type": "Point",
        "coordinates": [
          -146.7956220615669,
          51.190787824956935
        ]
      }
    }
  ]
}